GAOFEN-11 01            
1 43585U 18063A   26168.94541639  .00010939  00000+0  16277-3 0  9994
2 43585  97.1292 235.8216 0003027 355.0951   5.0274 15.55306044440463
ICESAT-2                
1 43613U 18070A   26168.87531763  .00008156  00000+0  29587-3 0  9999
2 43613  92.0085 291.1647 0006051 105.2933 254.8985 15.28293526432562
HYSIS                   
1 43719U 18096A   26168.95583332  .00000504  00000+0  75889-4 0  9998
2 43719  97.9842 235.6977 0001738  96.0061 264.1349 14.78617981407535
KAZSTSAT                
1 43783U 18099AB  26168.63121768  .00001369  00000+0  11492-3 0  9997
2 43783  97.4269 200.5392 0008530  68.6844 291.5290 14.99867394411371
SAUDISAT 5A             
1 43831U 18102A   26168.95064589  .00004579  00000+0  16976-3 0  9996
2 43831  97.3065 230.5170 0011050 126.7259 233.4998 15.28055105415794
SAUDISAT 5B             
1 43833U 18102C   26168.96936191  .00004344  00000+0  15993-3 0  9994
2 43833  97.3172 233.6064 0011730 128.8888 231.3400 15.28311353415916
GAOFEN-10R              
1 44622U 19066A   26168.96343086  .00000912  00000+0  11876-3 0  9999
2 44622  98.0498 122.5483 0006721 125.3922 234.7920 14.83062383362492
CARTOSAT-3              
1 44804U 19081A   26168.94768623  .00002321  00000+0  11302-3 0  9994
2 44804  97.4303 230.8025 0013290 145.3869 214.8234 15.19284413363586
GAOFEN-12 01            
1 44819U 19082A   26168.95835954  .00000297  00000+0  45503-4 0  9995
2 44819  97.8100 175.3174 0002250  69.5735 290.5719 14.80459065354204
CSG-1                   
1 44873U 19092A   26168.92898588  .00000297  00000+0  43909-4 0  9993
2 44873  97.8888 352.5206 0001474  89.5806 270.5577 14.82153756351588
NEMO-HD                 
1 46277U 20061F   26168.97195666  .00009174  00000+0  19904-3 0  9993
2 46277  97.1916 230.9170 0002233  80.0493 280.1008 15.44607803322102
SENTINEL-6A             
1 46984U 20086A   26168.31971128 -.00000070  00000+0 -39565-4 0  9992
2 46984  66.0395 134.7770 0007942 270.2239  89.7866 12.80929937260347
CAS500-1                
1 47932U 21022A   26168.98459837  .00005236  00000+0  24521-3 0  9990
2 47932  97.3898  64.2220 0003355 296.7252  63.3640 15.20140382290881
GAOFEN-12 02            
1 48079U 21026A   26168.96950057  .00000256  00000+0  40577-4 0  9992
2 48079  97.9921 167.1469 0003723 218.7174 141.3771 14.80296639281874
PLEIADES NEO 3          
1 48268U 21034A   26168.92847228  .00000583  00000+0  80676-4 0  9999
2 48268  97.8934 243.6845 0001387  86.1677 273.9694 14.81674507277768
PLEIADES NEO 4          
1 49070U 21073E   26168.89469303  .00000785  00000+0  10638-3 0  9998
2 49070  97.8937 243.6470 0001356  86.0878 274.0490 14.81676806261476
LANDSAT 9               
1 49260U 21088A   26168.81455376  .00000277  00000+0  71605-4 0  9990
2 49260  98.2281 238.9844 0001322  85.9444 274.1906 14.57097550251092
CSG-2                   
1 51444U 22008A   26168.89520999  .00000436  00000+0  61357-4 0  9992
2 51444  97.8880 352.4825 0001487  84.1716 275.9666 14.82157978236695
GAOFEN-12 03            
1 52912U 22069A   26168.93194772  .00000985  00000+0  13687-3 0  9992
2 52912  97.8282  56.7840 0002106 101.7909 258.3539 14.80037098214724
SWOT                    
1 54754U 22173A   26168.91715934  .00000006  00000+0  57488-5 0  9994
2 54754  77.6106  34.3248 0000247  87.6371 272.4809 14.00169693179258
GAOFEN-12 04            
1 57654U 23123A   26168.94852772  .00000786  00000+0  11019-3 0  9990
2 57654  97.9122  86.9554 0001781  82.6915 277.4499 14.80230101152745
PARS 1                  
1 59065U 24039Q   26168.96188613  .00009535  00000+0  19867-3 0  9993
2 59065  97.4824 149.9061 0011527 109.3416 250.9081 15.45738234128762
RESURS-P 4              
1 59371U 24061A   26168.91626987  .00002528  00000+0  83951-4 0  9995
2 59371  97.2755 116.8024 0002230 125.8733 234.2716 15.32134974123875
LEGION 1                
1 59625U 24081A   26168.88676351  .00003158  00000+0  16462-3 0  9997
2 59625  97.5018 246.7362 0009424  15.5747 344.5774 15.16671473117641
LEGION 2                
1 59626U 24081B   26168.91675158  .00002831  00000+0  14802-3 0  9999
2 59626  97.5019 246.8634 0010684 341.0255  19.0579 15.16649848117656
ALOS-4 (DAICHI-4)       
1 60182U 24123A   26168.90248184  .00001097  00000+0  15378-3 0  9991
2 60182  97.9247 266.0663 0001641  97.3674 262.7724 14.79468543105988
LEGION 3                
1 60452U 24146A   26168.92165363  .00003052  00000+0  16946-3 0  9990
2 60452  45.0025  26.6161 0007741 174.4786 185.6179 15.16041976102137
LEGION 4                
1 60453U 24146B   26168.92475121  .00003663  00000+0  20047-3 0  9992
2 60453  45.0010 118.5095 0013696 312.3124  47.6594 15.16036201100988
SENTINEL-2C             
1 60989U 24157A   26168.80191608  .00000090  00000+0  51065-4 0  9996
2 60989  98.5693 243.5752 0001014  82.1905 277.9393 14.30817989 93072
IONOSFERA-M 1           
1 61735U 24199A   26168.89705117  .00000037  00000+0  36361-4 0  9990
2 61735  98.7172  42.0618 0001968 109.3891 250.7500 14.22754462127808
