OBJECT_NAME,OBJECT_ID,EPOCH,MEAN_MOTION,ECCENTRICITY,INCLINATION,RA_OF_ASC_NODE,ARG_OF_PERICENTER,MEAN_ANOMALY,EPHEMERIS_TYPE,CLASSIFICATION_TYPE,NORAD_CAT_ID,ELEMENT_SET_NO,REV_AT_EPOCH,BSTAR,MEAN_MOTION_DOT,MEAN_MOTION_DDOT
GAOFEN-11 01,2018-063A,2026-06-17T22:41:23.976096,15.55306044,.0003027,97.1292,235.8216,355.0951,5.0274,0,U,43585,999,44046,.16277005E-3,.10939E-3,0
ICESAT-2,2018-070A,2026-06-17T21:00:27.443232,15.28293526,.0006051,92.0085,291.1647,105.2933,254.8985,0,U,43613,999,43256,.2958663E-3,.8156E-4,0
HYSIS,2018-096A,2026-06-17T22:56:23.998848,14.78617981,.00017386,97.9842,235.6977,96.0061,264.1349,0,U,43719,999,40753,.75889345E-4,.504E-5,0
KAZSTSAT,2018-099AB,2026-06-17T15:08:57.207552,14.99867394,.00085308,97.4269,200.5392,68.6844,291.5290,0,U,43783,999,41137,.11491817E-3,.1369E-4,0
SAUDISAT 5A,2018-102A,2026-06-17T22:48:55.804896,15.28055105,.00110505,97.3065,230.5170,126.7259,233.4998,0,U,43831,999,41579,.16976206E-3,.4579E-4,0
SAUDISAT 5B,2018-102C,2026-06-17T23:15:52.869024,15.28311353,.00117303,97.3172,233.6064,128.8888,231.3400,0,U,43833,999,41591,.15992533E-3,.4344E-4,0
GAOFEN-10R,2019-066A,2026-06-17T23:07:20.426304,14.83062383,.0006721,98.0498,122.5483,125.3922,234.7920,0,U,44622,999,36249,.11875659E-3,.912E-5,0
CARTOSAT-3,2019-081A,2026-06-17T22:44:40.090272,15.19284413,.00132907,97.4303,230.8025,145.3869,214.8234,0,U,44804,999,36358,.11302073E-3,.2321E-4,0
GAOFEN-12 01,2019-082A,2026-06-17T23:00:02.264256,14.80459065,.00022501,97.8100,175.3174,69.5735,290.5719,0,U,44819,999,35420,.45502526E-4,.297E-5,0
CSG-1,2019-092A,2026-06-17T22:17:44.380032,14.82153756,.00014745,97.8888,352.5206,89.5806,270.5577,0,U,44873,999,35158,.43908742E-4,.297E-5,0
NEMO-HD,2020-061F,2026-06-17T23:19:37.055424,15.44607803,.00022336,97.1916,230.9170,80.0493,280.1008,0,U,46277,999,32210,.19904084E-3,.9174E-4,0
SENTINEL-6A,2020-086A,2026-06-17T07:40:23.054592,12.80929937,.00079421,66.0395,134.7770,270.2239,89.7866,0,U,46984,999,26034,-.39564604E-4,-.7E-6,0
CAS500-1,2021-022A,2026-06-17T23:37:49.299168,15.20140382,.00033551,97.3898,64.2220,296.7252,63.3640,0,U,47932,999,29088,.24521155E-3,.5236E-4,0
GAOFEN-12 02,2021-026A,2026-06-17T23:16:04.849248,14.80296639,.0003723,97.9921,167.1469,218.7174,141.3771,0,U,48079,999,28187,.40577397E-4,.256E-5,0
PLEIADES NEO 3,2021-034A,2026-06-17T22:17:00.004992,14.81674507,.00013872,97.8934,243.6845,86.1677,273.9694,0,U,48268,999,27776,.8067606E-4,.583E-5,0
PLEIADES NEO 4,2021-073E,2026-06-17T21:28:21.477792,14.81676806,.00013562,97.8937,243.6470,86.0878,274.0490,0,U,49070,999,26147,.10638164E-3,.785E-5,0
LANDSAT 9,2021-088A,2026-06-17T19:32:57.444864,14.57097550,.00013226,98.2281,238.9844,85.9444,274.1906,0,U,49260,999,25109,.71604501E-4,.277E-5,0
CSG-2,2022-008A,2026-06-17T21:29:06.143136,14.82157978,.0001487,97.8880,352.4825,84.1716,275.9666,0,U,51444,999,23669,.61357129E-4,.436E-5,0
GAOFEN-12 03,2022-069A,2026-06-17T22:22:00.283008,14.80037098,.00021062,97.8282,56.7840,101.7909,258.3539,0,U,52912,999,21472,.1368684E-3,.985E-5,0
SWOT,2022-173A,2026-06-17T22:00:42.566976,14.00169693,.00002471,77.6106,34.3248,87.6371,272.4809,0,U,54754,999,17925,.5748837E-5,.6E-7,0
GAOFEN-12 04,2023-123A,2026-06-17T22:45:52.795008,14.80230101,.00017815,97.9122,86.9554,82.6915,277.4499,0,U,57654,999,15274,.11019144E-3,.786E-5,0
PARS 1,2024-039Q,2026-06-17T23:05:06.961632,15.45738234,.00115279,97.4824,149.9061,109.3416,250.9081,0,U,59065,999,12876,.1986728E-3,.9535E-4,0
RESURS-P 4,2024-061A,2026-06-17T21:59:25.716768,15.32134974,.00022302,97.2755,116.8024,125.8733,234.2716,0,U,59371,999,12387,.83951239E-4,.2528E-4,0
LEGION 1,2024-081A,2026-06-17T21:16:56.367264,15.16671473,.00094241,97.5018,246.7362,15.5747,344.5774,0,U,59625,999,11764,.16461769E-3,.3158E-4,0
LEGION 2,2024-081B,2026-06-17T22:00:07.336512,15.16649848,.00106844,97.5019,246.8634,341.0255,19.0579,0,U,59626,999,11765,.14802114E-3,.2831E-4,0
ALOS-4 (DAICHI-4),2024-123A,2026-06-17T21:39:34.430976,14.79468543,.00016413,97.9247,266.0663,97.3674,262.7724,0,U,60182,999,10598,.15378146E-3,.1097E-4,0
LEGION 3,2024-146A,2026-06-17T22:07:10.873632,15.16041976,.0007741,45.0025,26.6161,174.4786,185.6179,0,U,60452,999,10213,.16945918E-3,.3052E-4,0
LEGION 4,2024-146B,2026-06-17T22:11:38.504544,15.16036201,.00136964,45.0010,118.5095,312.3124,47.6594,0,U,60453,999,10098,.20047157E-3,.3663E-4,0
SENTINEL-2C,2024-157A,2026-06-17T19:14:45.549312,14.30817989,.00010145,98.5693,243.5752,82.1905,277.9393,0,U,60989,999,9307,.51065088E-4,.9E-6,0
IONOSFERA-M 1,2024-199A,2026-06-17T21:31:45.221088,14.22754462,.00019681,98.7172,42.0618,109.3891,250.7500,0,U,61735,999,12780,.36360668E-4,.37E-6,0
